[{"OBJECT_NAME":"TIANMU-1 07","OBJECT_ID":"2023-101A","EPOCH":"2026-03-06T13:47:20.454720","MEAN_MOTION":15.29118809,"ECCENTRICITY":0.00046097,"INCLINATION":97.2728,"RA_OF_ASC_NODE":118.5929,"ARG_OF_PERICENTER":142.4105,"MEAN_ANOMALY":217.7458,"EPHEMERIS_TYPE":0,"CLASSIFICATION_TYPE":"U","NORAD_CAT_ID":57399,"ELEMENT_SET_NO":999,"REV_AT_EPOCH":14596,"BSTAR":0.00029794732,"MEAN_MOTION_DOT":8.352e-5,"MEAN_MOTION_DDOT":0},{"OBJECT_NAME":"STARLINK-32674","OBJECT_ID":"2024-251C","EPOCH":"2026-03-09T21:26:15.066816","MEAN_MOTION":15.30221561,"ECCENTRICITY":0.00012704,"INCLINATION":53.1582,"RA_OF_ASC_NODE":334.075,"ARG_OF_PERICENTER":119.0902,"MEAN_ANOMALY":241.0226,"EPHEMERIS_TYPE":0,"CLASSIFICATION_TYPE":"U","NORAD_CAT_ID":62434,"ELEMENT_SET_NO":999,"REV_AT_EPOCH":6798,"BSTAR":0.0011942047,"MEAN_MOTION_DOT":0.00035201,"MEAN_MOTION_DDOT":0}]
